{
  "type": "FeatureCollection",
  "features": [
    {
      "type": "Feature",
      "geometry": {
        "type": "Point",
        "coordinates": [
          139.6329541199737,
          35.539602273141554
        ]
      },
      "properties": {
        "id": "5",
        "field_23": "C班",
        "field_24": "川の水があふれる洪水（外水氾濫）,下水があふれる洪水（内水氾濫）",
        "field_25": "寺崎 成、矢井 堅二朗",
        "Message": "大雨のとき、二階に避難！危険なら公園へ！",
        "collage": "川付近の危険度が高い地域に関しては、近づかないという意味の手のコラージュを付けた。安全地域である緑色で示された綱島市民の森の地域は、走る人と防災バックのコラージュを用いて、備蓄等を持ったうえでの水平避難を推奨し、危険度が低い、色の薄い地域においては、家のコラージュと静止した人のコラージュを用いて、二階等に移動し、むやみやたらに外に出ない垂直避難の推奨を示した。",
        "Mabling": "青が川の位置をさし占めており、赤色が外水氾濫で危険な地域、黄色が内水氾濫で浸水し得る地域を表し、危険度によって色の濃さを変えた。標高が高い為内水氾濫、外水氾濫の危険性が低く、避難場所として最適な綱島市民の森を安全地帯として緑とした。",
        "hazard": "水",
        "target": "みんなへ",
        "creationDate": "2024-12-21",
        "images": [
          "images/5_1.jpg"
        ],
        "status": "approved"
      }
    },
    {
      "type": "Feature",
      "geometry": {
        "type": "Point",
        "coordinates": [
          139.6365334630616,
          35.5488245653054
        ]
      },
      "properties": {
        "id": "6",
        "field_23": "B班",
        "field_24": "川の水があふれる洪水（外水氾濫）,下水があふれる洪水（内水氾濫）",
        "field_25": "清水 俊祐、荒木 洸人",
        "Message": "この地域の住民に、普段気づきにくい水害のリスクとそれに対して取るべき行動(高台への避難、警戒情報へ耳を傾ける)",
        "collage": "地域住民の高台への素早い避難(車を使わない、発令される警戒情報に耳を傾ける",
        "Mabling": "山や線路によって、心理的に川から離れている地域でも、内水氾濫や外水氾濫のリスクがある",
        "hazard": "水",
        "target": "地域住民の方へ",
        "creationDate": "2024-12-21",
        "images": [
          "images/6_1.jpg"
        ],
        "status": "approved"
      }
    },
    {
      "type": "Feature",
      "geometry": {
        "type": "Point",
        "coordinates": [
          139.6494376555896,
          35.552153173952725
        ]
      },
      "properties": {
        "id": "7",
        "field_23": "A班",
        "field_24": "土砂災害マップ,川の水があふれる洪水（外水氾濫）,下水があふれる洪水（内水氾濫）",
        "field_25": "桑本 拓輝、平野 翔、",
        "Message": "慶應生は勉強できるよ！けど日吉公園付近は危ないよ！",
        "collage": "最も強調したい主張が2つあり、それが日吉公園付近の氾濫が非常に危険であることと、塾生はどんな状況下でも勉強ができるということです。氾濫時には右上の危険地帯からは逃げ、付近の避難所に逃げるように表現しています。その一方で、安全な慶應義塾大学校舎と普通部の校舎内には塾生とペンマークを配置して常に勉強ができる環境を表現しました。白を安全地帯として逃げれることをわかりやすく表現しました。",
        "Mabling": "内水氾濫は全体的→青色の大きな円\n大学は安全→白色でキャンパスを再現\n外水氾濫は南に集中→橙色\n矢上川付近は局所的に危険性大→赤色の小さな円",
        "hazard": "地盤",
        "target": "学生の方へ",
        "creationDate": "2024-12-21",
        "images": [
          "images/7_1.jpg"
        ],
        "status": "approved"
      }
    },
    {
      "type": "Feature",
      "geometry": {
        "type": "Point",
        "coordinates": [
          139.6518276080062,
          35.53980232188539
        ]
      },
      "properties": {
        "id": "8",
        "field_23": "B班",
        "field_24": "土砂災害マップ",
        "field_25": "Komari",
        "Message": "迅速な避難",
        "collage": "住民",
        "Mabling": "鶴見川氾濫情報と避難情報の迅速な共有",
        "hazard": "地盤",
        "target": "みんなへ",
        "creationDate": "2025-01-13",
        "images": [
          "images/8_1.jpg"
        ],
        "status": "approved"
      }
    },
    {
      "type": "Feature",
      "geometry": {
        "type": "Point",
        "coordinates": [
          139.647617733256,
          35.539704950547645
        ]
      },
      "properties": {
        "id": "9",
        "field_23": "C班",
        "field_24": "津波（浸水深、慶長型地震）",
        "field_25": "ゆきこ",
        "Message": "逃げよう！",
        "collage": "津波警報が出たら落ち着いて、防災グッズをもってすぐに高い地域に避難したいところです。",
        "Mabling": "住宅密集地のため、外に出てきた住民に混乱が起こると思います。川沿いに位置しているため、津波や高潮の影響を受けやすい。",
        "hazard": "水",
        "target": "みんなへ",
        "creationDate": "2025-01-13",
        "images": [
          "images/9_1.jpg"
        ],
        "status": "approved"
      }
    },
    {
      "type": "Feature",
      "geometry": {
        "type": "Point",
        "coordinates": [
          139.63851410661877,
          35.53733532780849
        ]
      },
      "properties": {
        "id": "10",
        "field_23": "B班",
        "field_24": "土砂災害マップ",
        "field_25": "大吉&小吉",
        "Message": "神だのみ",
        "collage": "近隣のひとには、すみやかに行動してほしい。",
        "Mabling": "土砂災害時の諏訪神社より東小への避難をイメージしました。",
        "hazard": "地盤",
        "target": "みんなへ",
        "creationDate": "2025-01-13",
        "images": [
          "images/10_1.jpg"
        ],
        "status": "approved"
      }
    },
    {
      "type": "Feature",
      "geometry": {
        "type": "Point",
        "coordinates": [
          139.64056811658153,
          35.5392907971865
        ]
      },
      "properties": {
        "id": "11",
        "field_23": "A班",
        "field_24": "川の水があふれる洪水（外水氾濫）,下水があふれる洪水（内水氾濫）",
        "field_25": "綱島SST",
        "Message": "散歩好きの皆さんへ、鶴見川からの距離を体感しておこう",
        "collage": "住民",
        "Mabling": "鶴見川、氾濫したら大変かも。",
        "hazard": "水",
        "target": "友人へ",
        "creationDate": "2025-01-13",
        "images": [
          "images/11_1.jpg"
        ],
        "status": "approved"
      }
    },
    {
      "type": "Feature",
      "geometry": {
        "type": "Point",
        "coordinates": [
          139.63473629599767,
          35.54463847599943
        ]
      },
      "properties": {
        "id": "12",
        "field_23": "A班",
        "field_24": "川の水があふれる洪水（外水氾濫）",
        "field_25": "ヲタじじぃ",
        "Message": "上へ逃げろ！",
        "collage": "垂直避難、2階、マンション、綱島台は土砂災害に注意",
        "Mabling": "集中豪雨で川が氾濫、2mの水位",
        "hazard": "水",
        "target": "みんなへ",
        "creationDate": "2025-01-13",
        "images": [
          "images/12_1.jpg"
        ],
        "status": "approved"
      }
    },
    {
      "type": "Feature",
      "geometry": {
        "type": "Point",
        "coordinates": [
          139.65126615327526,
          35.53947539795785
        ]
      },
      "properties": {
        "id": "13",
        "field_23": "A班",
        "field_24": "土砂災害マップ,川の水があふれる洪水（外水氾濫）",
        "field_25": "稲村",
        "Message": "流域の方へ",
        "collage": "弱い部分なので鼻風邪を引いている。風邪を治すことが大切。",
        "Mabling": "鶴見川のカーブ部の先は越水しやすい場所と思います。\nカーブを人の鼻に見立てて危険を表現してみました。",
        "hazard": "地盤",
        "target": "みんなへ",
        "creationDate": "2025-01-13",
        "images": [
          "images/13_1.jpg"
        ],
        "status": "approved"
      }
    },
    {
      "type": "Feature",
      "geometry": {
        "type": "Point",
        "coordinates": [
          139.6418830418722,
          35.53676966984886
        ]
      },
      "properties": {
        "id": "14",
        "field_23": "A班",
        "field_24": "川の水があふれる洪水（外水氾濫）,地震火災（元禄型関東地震）,地盤の液状化（元禄型関東地震）",
        "field_25": "星！",
        "Message": "危ない気おつけて",
        "collage": "危険を知らせる。犬と鳥。",
        "Mabling": "洪水、浸水の危険性",
        "hazard": "地震",
        "target": "みんなへ",
        "creationDate": "2025-01-13",
        "images": [
          "images/14_1.jpg"
        ],
        "status": "approved"
      }
    },
    {
      "type": "Feature",
      "geometry": {
        "type": "Point",
        "coordinates": [
          139.6347590140001,
          35.53680697800007
        ]
      },
      "properties": {
        "id": "15",
        "field_23": "A班",
        "field_24": "川の水があふれる洪水（外水氾濫）",
        "field_25": "リスきりんぐ～",
        "Message": "もしもの時は躊躇なく。",
        "collage": "綱島駅周辺は川に隣接しており、洪水が起きやすい地域です。\n住民の皆さんは日ごろから豪雨による洪水をシュミレーションし、予報が発動した場合は落ち着いて対応して頂ければと思います。甚大な災害予報があった場合は、より安全な地域へまずは避難していただければと思います。\n\n通勤／通学者は予報時は通勤／通学を取りやめることも想定するとよいと思います。昨今はオンラインで対応できることも多いです。復旧段階に入りましたら、現場の求めに応じて各種サポートを実施していただければと思います。",
        "Mabling": "青色：川\nオレンジ色：川が溢れる洪水（外水氾濫　3.0～5.0 m）\n黄色：川が溢れる洪水（外水氾濫　0.5～3.0 m）",
        "hazard": "水",
        "target": "みんなへ",
        "creationDate": "2025-09-25",
        "images": [
          "images/15_1.jpg"
        ],
        "status": "approved"
      }
    },
    {
      "type": "Feature",
      "geometry": {
        "type": "Point",
        "coordinates": [
          139.6443132504351,
          35.55393782783362
        ]
      },
      "properties": {
        "id": "22",
        "field_23": null,
        "field_24": "地震火災（元禄型関東地震）",
        "field_25": "まむみぃ",
        "Message": "日吉駅の周りは坂だらけ！",
        "collage": "命の危険性を透明度で表現した。安全である避難場所に近い人ほど、生存率が高いため、スタンプの濃さを濃くした",
        "Mabling": "地震が来たら． 火災が発生してしまう危険性がある所！",
        "hazard": null,
        "target": "みんなへ",
        "creationDate": "2025-10-24",
        "images": [
          "images/22_1.jpg"
        ],
        "status": "approved"
      }
    },
    {
      "type": "Feature",
      "geometry": {
        "type": "Point",
        "coordinates": [
          139.6413091763431,
          35.53927236659095
        ]
      },
      "properties": {
        "id": "29",
        "field_23": null,
        "field_24": "川の水があふれる洪水（外水氾濫）,高潮（浸水深）",
        "field_25": "Tsuna",
        "Message": "綱島エリアで生活するみんなへ",
        "collage": "この地域に暮らす人、働く人みんなが、外出先でも一時避難出来る場所を知っておきたい",
        "Mabling": "鶴見川が氾濫したときに来る水",
        "hazard": null,
        "target": "みんなへ",
        "creationDate": "2025-10-25",
        "images": [
          "images/29_1.jpg"
        ],
        "status": "approved"
      }
    },
    {
      "type": "Feature",
      "geometry": {
        "type": "Point",
        "coordinates": [
          139.64541664,
          35.54266408000006
        ]
      },
      "properties": {
        "id": "30",
        "field_23": null,
        "field_24": "川の水があふれる洪水（外水氾濫）,津波（浸水深、慶長型地震）,地震火災（元禄型関東地震）",
        "field_25": "MH",
        "Message": "来る前に逃げろ、来たらもっと逃げろ　",
        "collage": "①来る前に逃げよ、来たら逃げよ\n②事前にハザードマップでひなんさきを確認、周知しておけ\n③『逃げバッグ』を常備しておけ",
        "Mabling": "水が来る、兎に角逃げろ！！",
        "hazard": null,
        "target": "みんなへ",
        "creationDate": "2025-10-25",
        "images": [
          "images/30_1.jpg"
        ],
        "status": "approved"
      }
    },
    {
      "type": "Feature",
      "geometry": {
        "type": "Point",
        "coordinates": [
          139.64441507623852,
          35.545698726144856
        ]
      },
      "properties": {
        "id": "32",
        "field_23": null,
        "field_24": "下水があふれる洪水（内水氾濫）",
        "field_25": "ぴざまん",
        "Message": "巨大な水たまりから逃げろ",
        "collage": "大きな水たまりを迂回する。",
        "Mabling": "大雨の時に排水が間に合わず、水浸しになる。\n迂回をしないと靴がビショビショ。",
        "hazard": null,
        "target": "みんなへ",
        "creationDate": "2025-10-25",
        "images": [
          "images/32_1.jpg"
        ],
        "status": "approved"
      }
    },
    {
      "type": "Feature",
      "geometry": {
        "type": "Point",
        "coordinates": [
          139.6371197249793,
          35.53522355143413
        ]
      },
      "properties": {
        "id": "33",
        "field_23": null,
        "field_24": "川の水があふれる洪水（外水氾濫）",
        "field_25": "いだ",
        "Message": "逃げる",
        "collage": "近隣住民が、氾濫時、安全な地域に迅速に逃げるように。\n川から離れるにつれ、だんだん安全になるように、人間の色をグラーデーショナルに変化させた。",
        "Mabling": "大雨の際に鶴見川は氾濫の危険性があります。\nマーブリングによって、濁流の川の渦を表現しました。",
        "hazard": null,
        "target": "みんなへ",
        "creationDate": "2025-10-25",
        "images": [
          "images/33_1.jpg"
        ],
        "status": "approved"
      }
    },
    {
      "type": "Feature",
      "geometry": {
        "type": "Point",
        "coordinates": [
          139.64470131256326,
          35.54568377687737
        ]
      },
      "properties": {
        "id": "34",
        "field_23": null,
        "field_24": "下水があふれる洪水（内水氾濫）,地盤の液状化（元禄型関東地震）",
        "field_25": "Minowa",
        "Message": "日頃の準備は万全ですか？",
        "collage": "避難がリスクになることもあるので、自宅避難が安心してできるように、住居者に合わせた準備を日頃からしてほしいという事を表現しました。",
        "Mabling": "いつもの様子からは考えられないが、実は液状化、洪水のリスクがある地域であることをイメージしました。",
        "hazard": null,
        "target": "みんなへ",
        "creationDate": "2025-10-25",
        "images": [
          "images/34_1.jpg"
        ],
        "status": "approved"
      }
    },
    {
      "type": "Feature",
      "geometry": {
        "type": "Point",
        "coordinates": [
          139.65656354573204,
          35.55550994810465
        ]
      },
      "properties": {
        "id": "35",
        "field_23": null,
        "field_24": "川の水があふれる洪水（外水氾濫）,津波（浸水深、慶長型地震）",
        "field_25": "RIKO",
        "Message": "水が襲う！！平行避難はダメ！川から離れて！遠く・高く！",
        "collage": "川のそばに住んでいる人や、鶴見川を散歩する人へ。\n大きな揺れの後や水害が予想される時には速やかに川から離れてください。\nその際平行移動ではなく川から距離をおく避難をしてください。。。と表現したかったです。",
        "Mabling": "中央の青い色は「川」を表しています。マーブリングで「氾濫」を表現しました。\n「人」のマークは避難を表しています。赤は危険を、緑は安全を表しました。",
        "hazard": null,
        "target": "みんなへ",
        "creationDate": "2025-10-25",
        "images": [
          "images/35_1.jpg"
        ],
        "status": "approved"
      }
    },
    {
      "type": "Feature",
      "geometry": {
        "type": "Point",
        "coordinates": [
          139.64389572066085,
          35.54577850613596
        ]
      },
      "properties": {
        "id": "48",
        "field_23": null,
        "field_24": "地盤の液状化（元禄型関東地震）",
        "field_25": "ブルー☆マウンテン",
        "Message": "揺れる水、途絶える水、備える水",
        "collage": "液状化危険度の高い地域にお住まいの方々は、断水に備え、十分な量の水を備蓄することが推奨されます。青色の雫と四角形で飲料水をポリタンクに貯めて使うローリングストックを表現しました。また、建物は地盤の液状化で沈下・傾斜する恐れがあります。傾いた家と傾いていないべた基礎の家を対比することでしっかりとした基礎の大切さを表現しました。",
        "Mabling": "対象区域は地盤の液状化の危険度が高いです。マーブリングの模様は地震時の地盤液状化や、それに伴う噴砂、水道管の被害を表しています。",
        "hazard": null,
        "target": null,
        "creationDate": "2026-01-04",
        "images": [
          "images/48_1.jpg"
        ],
        "status": "approved"
      }
    },
    {
      "type": "Feature",
      "geometry": {
        "type": "Point",
        "coordinates": [
          139.64435227368287,
          35.54548044090556
        ]
      },
      "properties": {
        "id": "50",
        "field_23": null,
        "field_24": "土砂災害マップ,川の水があふれる洪水（外水氾濫）,高潮（浸水深）,地震火災（元禄型関東地震）",
        "field_25": "Tokunin",
        "Message": "空を求めて",
        "collage": "対象地域は地震による火災のリスクは少ないため、中央の青い建物の周りに火が立つ様子を表して、頑丈な建物に避難することを促している。\n右上と左上はそれぞれ北東と北西を指し、対象地域の北東と北西は土地が高く、高潮や洪水の被害を受けにくいことを鳩で表している。一方で土砂災害のリスクが高いため、四角や三角で土砂崩れを表し、土砂崩れには南側に避難するよう促している。",
        "Mabling": "高潮や洪水の影響を受けやすく、周囲には土砂災害が起きるリスクの高い地域があり、液状化しやすい土地である。一方で、地震による火災のリスクは比較的少なく、津波のリスクもかなり低い。赤茶色は地面を、青は空を表している。",
        "hazard": null,
        "target": null,
        "creationDate": "2026-01-06",
        "images": [
          "images/50_1.jpg"
        ],
        "status": "approved"
      }
    },
    {
      "type": "Feature",
      "geometry": {
        "type": "Point",
        "coordinates": [
          139.6453076626172,
          35.54803974858004
        ]
      },
      "properties": {
        "id": "51",
        "field_23": null,
        "field_24": "土砂災害マップ,川の水があふれる洪水（外水氾濫）,下水があふれる洪水（内水氾濫）,高潮（浸水深）,地震火災（元禄型関東地震）,地盤の液状化（元禄型関東地震）",
        "field_25": "こいちゃん　そぼろ",
        "Message": "地域住民はリスクに応じた行動を!",
        "collage": "地域住民主体で、避難場所、垂直避難(水害)、危険箇所(土砂崩れ)、備蓄品(液状化)のポイントを表現しました。",
        "Mabling": "液状化は範囲が大きく大地のイメージで土色、土砂崩れを緊急度・被害度合いが大きいので赤、洪水高潮を水のイメージで青、避難場所を自然のイメージで緑で表現しました。",
        "hazard": null,
        "target": null,
        "creationDate": "2026-01-18",
        "images": [
          "images/51_1.jpg"
        ],
        "status": "approved"
      }
    },
    {
      "type": "Feature",
      "geometry": {
        "type": "Point",
        "coordinates": [
          139.6522420112928,
          35.55537017183677
        ]
      },
      "properties": {
        "id": "52",
        "field_23": null,
        "field_24": "土砂災害マップ,下水があふれる洪水（内水氾濫）",
        "field_25": "しみず",
        "Message": "理工学部生へ",
        "collage": "内水氾濫が起きる部分については🖐️でストップマークを表しました。\n土砂災害は木を倒したりして危険性を表現しました。\n高台に避難して欲しいので🏃マークを使って避難して欲しい気持ちを表現しました。",
        "Mabling": "内水氾濫を青、土砂災害をオレンジ、安全なところを緑色で分けて塗り分けました。",
        "hazard": null,
        "target": null,
        "creationDate": "2026-01-18",
        "images": [
          "images/52_1.jpg"
        ],
        "status": "approved"
      }
    },
    {
      "type": "Feature",
      "geometry": {
        "type": "Point",
        "coordinates": [
          139.6347532117782,
          35.53687874990373
        ]
      },
      "properties": {
        "id": "53",
        "field_23": null,
        "field_24": "高潮（浸水深）,震度情報（元禄型関東地震）",
        "field_25": "びけん",
        "Message": "鶴下絵高潮図",
        "collage": "高潮の際はより高い場所へ避難することを、鳥(避難者)と山で表現しました",
        "Mabling": "高潮で浸水する様子を水色で表した",
        "hazard": null,
        "target": null,
        "creationDate": "2026-01-18",
        "images": [
          "images/53_1.jpg"
        ],
        "status": "approved"
      }
    },
    {
      "type": "Feature",
      "geometry": {
        "type": "Point",
        "coordinates": [
          139.64500838153606,
          35.546032344765855
        ]
      },
      "properties": {
        "id": "54",
        "field_23": null,
        "field_24": "川の水があふれる洪水（外水氾濫）",
        "field_25": "Mino輪",
        "Message": "上に！",
        "collage": "浸水時に「垂直避難」を促せるように、階段を真ん中に配置しました。\n近隣には商業施設があることもあり、対象は老若男女の皆さんです。また、ワンちゃんをはじめ動物たちも。\n地域の特徴として、「綱島街道」を描きました。坂を登った先に、慶應義塾大学の銀杏並木があります。",
        "Mabling": "水をイメージできる色を選びました。また、より、リスクの高いエリアを濃い色で表現しました。",
        "hazard": null,
        "target": null,
        "creationDate": "2026-01-18",
        "images": [
          "images/54_1.jpg"
        ],
        "status": "approved"
      }
    },
    {
      "type": "Feature",
      "geometry": {
        "type": "Point",
        "coordinates": [
          139.63653390115627,
          35.52758359398654
        ]
      },
      "properties": {
        "id": "55",
        "field_23": null,
        "field_24": "内水氾濫",
        "field_25": "Test",
        "Message": "Test",
        "collage": "Test",
        "Mabling": "Test",
        "creationDate": "2026-08-31",
        "images": [
          "images/55_1.jpg"
        ],
        "status": "approved"
      }
    },
    {
      "type": "Feature",
      "geometry": {
        "type": "Point",
        "coordinates": [
          139.6415105878981,
          35.52588496782512
        ]
      },
      "properties": {
        "id": "56",
        "field_23": null,
        "field_24": "洪水（外水氾濫）",
        "field_25": "I",
        "Message": "I",
        "collage": "I",
        "Mabling": "7",
        "creationDate": "2026-08-31",
        "images": [
          "images/56_1.jpg"
        ],
        "status": "approved"
      }
    },
    {
      "type": "Feature",
      "geometry": {
        "type": "Point",
        "coordinates": [
          139.64172363281253,
          35.54273861183838
        ]
      },
      "properties": {
        "id": "57",
        "field_23": null,
        "field_24": "地震の揺れ（震度）, 液状化に関わる低地（参考）",
        "field_25": "ペンネーム",
        "Message": "作品タイトル（メッセージ）",
        "collage": "・どんな行動や備えを表現しましたか？\n\n・その行動をしてほしいのは、誰ですか？\n（住民／通勤・通学者／買い物客／旅行者 など）",
        "Mabling": "・模様は、どんなことをイメージしていますか？\n\n・色は、何を表していますか？",
        "creationDate": "2026-09-02",
        "images": [
          "images/57_1.jpg"
        ],
        "status": "approved"
      }
    },
    {
      "type": "Feature",
      "geometry": {
        "type": "Point",
        "coordinates": [
          139.64781761169436,
          35.53845629890696
        ]
      },
      "properties": {
        "id": "58",
        "field_23": null,
        "field_24": "土砂災害（急傾斜地の崩壊）, 津波",
        "field_25": "ペンネーム",
        "Message": "タイトル",
        "collage": "防災行動",
        "Mabling": "表現した災害リスクについて",
        "creationDate": "2026-09-02",
        "images": [
          "images/58_1.jpg"
        ],
        "status": "approved"
      }
    },
    {
      "type": "Feature",
      "geometry": {
        "type": "Point",
        "coordinates": [
          139.5666075745032,
          35.51691686781335
        ]
      },
      "properties": {
        "id": "59",
        "field_23": null,
        "field_24": "洪水（外水氾濫）",
        "field_25": "あ",
        "Message": "北側に向かって避難",
        "collage": "北側に避難すること",
        "Mabling": "青　川の氾濫\n黄色　土砂崩れ",
        "creationDate": "2026-09-02",
        "images": [
          "images/59_1.jpg"
        ],
        "status": "approved"
      }
    }
  ]
}