{"type": "FeatureCollection", "features": [{"type": "Feature", "geometry": {"type": "Point", "coordinates": [139.572759, 35.570583]}, "properties": {"name": "牛久保配水池", "kind": "配水池", "ward": "都筑区", "address": "牛久保町3－27"}}, {"type": "Feature", "geometry": {"type": "Point", "coordinates": [139.558401, 35.529824]}, "properties": {"name": "港北配水池", "kind": "配水池", "ward": "都筑区", "address": "都筑区二の丸14"}}, {"type": "Feature", "geometry": {"type": "Point", "coordinates": [139.65548, 35.509857]}, "properties": {"name": "鶴見配水池", "kind": "配水池", "ward": "鶴見区", "address": "馬場3－29－32"}}, {"type": "Feature", "geometry": {"type": "Point", "coordinates": [139.504929, 35.509596]}, "properties": {"name": "三保配水池", "kind": "配水池", "ward": "緑区", "address": "三保町384"}}, {"type": "Feature", "geometry": {"type": "Point", "coordinates": [139.652636, 35.494419]}, "properties": {"name": "神之木公園", "kind": "災害用地下給水タンク", "ward": "神奈川区", "address": "神之木台13"}}, {"type": "Feature", "geometry": {"type": "Point", "coordinates": [139.605731, 35.48328]}, "properties": {"name": "神大寺中央公園", "kind": "災害用地下給水タンク", "ward": "神奈川区", "address": "神大寺3-25"}}, {"type": "Feature", "geometry": {"type": "Point", "coordinates": [139.635416, 35.545209]}, "properties": {"name": "コンフォール南日吉", "kind": "災害用地下給水タンク", "ward": "港北区", "address": "日吉本町4-10-35"}}, {"type": "Feature", "geometry": {"type": "Point", "coordinates": [139.604495, 35.519084]}, "properties": {"name": "県立新羽高校", "kind": "災害用地下給水タンク", "ward": "港北区", "address": "新羽町1348"}}, {"type": "Feature", "geometry": {"type": "Point", "coordinates": [139.69933, 35.502178]}, "properties": {"name": "寛政中学校", "kind": "災害用地下給水タンク", "ward": "鶴見区", "address": "寛政町23-1"}}, {"type": "Feature", "geometry": {"type": "Point", "coordinates": [139.68929, 35.506277]}, "properties": {"name": "潮田小学校", "kind": "災害用地下給水タンク", "ward": "鶴見区", "address": "向井町3-82-1"}}, {"type": "Feature", "geometry": {"type": "Point", "coordinates": [139.679045, 35.51391]}, "properties": {"name": "国土交通省京浜河川事務所", "kind": "災害用地下給水タンク", "ward": "鶴見区", "address": "鶴見中央2-18-1"}}, {"type": "Feature", "geometry": {"type": "Point", "coordinates": [139.657929, 35.504308]}, "properties": {"name": "寺尾小学校", "kind": "災害用地下給水タンク", "ward": "鶴見区", "address": "東寺尾5-19-1"}}, {"type": "Feature", "geometry": {"type": "Point", "coordinates": [139.663944, 35.522328]}, "properties": {"name": "末吉中学校", "kind": "災害用地下給水タンク", "ward": "鶴見区", "address": "下末吉6-13-1"}}, {"type": "Feature", "geometry": {"type": "Point", "coordinates": [139.671111, 35.494932]}, "properties": {"name": "生麦小学校", "kind": "災害用地下給水タンク", "ward": "鶴見区", "address": "生麦4-15-1"}}, {"type": "Feature", "geometry": {"type": "Point", "coordinates": [139.639113, 35.512104]}, "properties": {"name": "上の宮中学校", "kind": "災害用地下給水タンク", "ward": "鶴見区", "address": "上の宮1-26-33"}}, {"type": "Feature", "geometry": {"type": "Point", "coordinates": [139.67634, 35.533098]}, "properties": {"name": "新鶴見小学校", "kind": "災害用地下給水タンク", "ward": "鶴見区", "address": "江ケ崎町2-1"}}, {"type": "Feature", "geometry": {"type": "Point", "coordinates": [139.661571, 35.533683]}, "properties": {"name": "上末吉小学校", "kind": "災害用地下給水タンク", "ward": "鶴見区", "address": "上末吉5-24-1"}}, {"type": "Feature", "geometry": {"type": "Point", "coordinates": [139.615848, 35.479692]}, "properties": {"name": "松本中学校", "kind": "災害用地下給水タンク", "ward": "神奈川区", "address": "三ツ沢下町30-1"}}, {"type": "Feature", "geometry": {"type": "Point", "coordinates": [139.642271, 35.485946]}, "properties": {"name": "浦島丘中学校", "kind": "災害用地下給水タンク", "ward": "神奈川区", "address": "白幡東町27-1"}}, {"type": "Feature", "geometry": {"type": "Point", "coordinates": [139.624086, 35.477281]}, "properties": {"name": "栗田谷中学校", "kind": "災害用地下給水タンク", "ward": "神奈川区", "address": "栗田谷3-1"}}, {"type": "Feature", "geometry": {"type": "Point", "coordinates": [139.608881, 35.476137]}, "properties": {"name": "三ツ沢小学校", "kind": "災害用地下給水タンク", "ward": "神奈川区", "address": "三ツ沢中町4-17"}}, {"type": "Feature", "geometry": {"type": "Point", "coordinates": [139.637321, 35.495927]}, "properties": {"name": "大口台小学校", "kind": "災害用地下給水タンク", "ward": "神奈川区", "address": "大口仲町460"}}, {"type": "Feature", "geometry": {"type": "Point", "coordinates": [139.587772, 35.4886]}, "properties": {"name": "羽沢小学校", "kind": "災害用地下給水タンク", "ward": "神奈川区", "address": "羽沢町935"}}, {"type": "Feature", "geometry": {"type": "Point", "coordinates": [139.613855, 35.491092]}, "properties": {"name": "六角橋中学校", "kind": "災害用地下給水タンク", "ward": "神奈川区", "address": "六角橋5-33-1"}}, {"type": "Feature", "geometry": {"type": "Point", "coordinates": [139.619717, 35.512973]}, "properties": {"name": "横浜アリーナ", "kind": "災害用地下給水タンク", "ward": "港北区", "address": "新横浜3-10"}}, {"type": "Feature", "geometry": {"type": "Point", "coordinates": [139.642008, 35.528047]}, "properties": {"name": "樽町中学校", "kind": "災害用地下給水タンク", "ward": "港北区", "address": "樽町4-15-1"}}, {"type": "Feature", "geometry": {"type": "Point", "coordinates": [139.625516, 35.521619]}, "properties": {"name": "大綱中学校", "kind": "災害用地下給水タンク", "ward": "港北区", "address": "大倉山3-40-1"}}, {"type": "Feature", "geometry": {"type": "Point", "coordinates": [139.622124, 35.541247]}, "properties": {"name": "新田中学校", "kind": "災害用地下給水タンク", "ward": "港北区", "address": "新吉田東5-25-1"}}, {"type": "Feature", "geometry": {"type": "Point", "coordinates": [139.63072, 35.557316]}, "properties": {"name": "下田小学校", "kind": "災害用地下給水タンク", "ward": "港北区", "address": "下田町4-10-1"}}, {"type": "Feature", "geometry": {"type": "Point", "coordinates": [139.614378, 35.501325]}, "properties": {"name": "篠原西小学校", "kind": "災害用地下給水タンク", "ward": "港北区", "address": "篠原町1241-1"}}, {"type": "Feature", "geometry": {"type": "Point", "coordinates": [139.610166, 35.533942]}, "properties": {"name": "新田小学校", "kind": "災害用地下給水タンク", "ward": "港北区", "address": "新吉田町3226-1"}}, {"type": "Feature", "geometry": {"type": "Point", "coordinates": [139.597499, 35.505765]}, "properties": {"name": "小机小学校", "kind": "災害用地下給水タンク", "ward": "港北区", "address": "小机町1382-10"}}, {"type": "Feature", "geometry": {"type": "Point", "coordinates": [139.643738, 35.552217]}, "properties": {"name": "日吉台小学校", "kind": "災害用地下給水タンク", "ward": "港北区", "address": "日吉本町1-34-21"}}, {"type": "Feature", "geometry": {"type": "Point", "coordinates": [139.612329, 35.549596]}, "properties": {"name": "新吉田第二小学校", "kind": "災害用地下給水タンク", "ward": "港北区", "address": "新吉田町491-1"}}, {"type": "Feature", "geometry": {"type": "Point", "coordinates": [139.560725, 35.507391]}, "properties": {"name": "鴨居中学校", "kind": "災害用地下給水タンク", "ward": "緑区", "address": "鴨居5-12-35"}}, {"type": "Feature", "geometry": {"type": "Point", "coordinates": [139.538502, 35.524828]}, "properties": {"name": "山下小学校", "kind": "災害用地下給水タンク", "ward": "緑区", "address": "北八朔町1865-3"}}, {"type": "Feature", "geometry": {"type": "Point", "coordinates": [139.502493, 35.525635]}, "properties": {"name": "いぶき野小学校", "kind": "災害用地下給水タンク", "ward": "緑区", "address": "いぶき野14-1"}}, {"type": "Feature", "geometry": {"type": "Point", "coordinates": [139.526958, 35.515668]}, "properties": {"name": "三保小学校", "kind": "災害用地下給水タンク", "ward": "緑区", "address": "三保町1867"}}, {"type": "Feature", "geometry": {"type": "Point", "coordinates": [139.541947, 35.504923]}, "properties": {"name": "中山中学校", "kind": "災害用地下給水タンク", "ward": "緑区", "address": "寺山町653-21"}}, {"type": "Feature", "geometry": {"type": "Point", "coordinates": [139.581339, 35.505083]}, "properties": {"name": "東本郷小学校", "kind": "災害用地下給水タンク", "ward": "緑区", "address": "東本郷5-40-1"}}, {"type": "Feature", "geometry": {"type": "Point", "coordinates": [139.488151, 35.534545]}, "properties": {"name": "長津田第二小学校", "kind": "災害用地下給水タンク", "ward": "緑区", "address": "長津田町2469-3"}}, {"type": "Feature", "geometry": {"type": "Point", "coordinates": [139.511549, 35.522505]}, "properties": {"name": "十日市場中学校", "kind": "災害用地下給水タンク", "ward": "緑区", "address": "十日市場町1501-42"}}, {"type": "Feature", "geometry": {"type": "Point", "coordinates": [139.57997, 35.540788]}, "properties": {"name": "茅ケ崎小学校", "kind": "災害用地下給水タンク", "ward": "都筑区", "address": "茅ケ崎南1-11-1"}}, {"type": "Feature", "geometry": {"type": "Point", "coordinates": [139.602758, 35.559845]}, "properties": {"name": "山田小学校", "kind": "災害用地下給水タンク", "ward": "都筑区", "address": "東山田3-29-1"}}, {"type": "Feature", "geometry": {"type": "Point", "coordinates": [139.594975, 35.543055]}, "properties": {"name": "勝田小学校", "kind": "災害用地下給水タンク", "ward": "都筑区", "address": "勝田町266"}}, {"type": "Feature", "geometry": {"type": "Point", "coordinates": [139.565074, 35.562354]}, "properties": {"name": "中川西中学校", "kind": "災害用地下給水タンク", "ward": "都筑区", "address": "中川2-1-1"}}, {"type": "Feature", "geometry": {"type": "Point", "coordinates": [139.581557, 35.558865]}, "properties": {"name": "牛久保小学校", "kind": "災害用地下給水タンク", "ward": "都筑区", "address": "牛久保1-23-1"}}, {"type": "Feature", "geometry": {"type": "Point", "coordinates": [139.570795, 35.523343]}, "properties": {"name": "都田中学校", "kind": "災害用地下給水タンク", "ward": "都筑区", "address": "池辺町2818"}}, {"type": "Feature", "geometry": {"type": "Point", "coordinates": [139.566134, 35.545689]}, "properties": {"name": "つづきの丘小学校", "kind": "災害用地下給水タンク", "ward": "都筑区", "address": "荏田東1-22-1"}}, {"type": "Feature", "geometry": {"type": "Point", "coordinates": [139.571366, 35.544772]}, "properties": {"name": "都筑区総合庁舎", "kind": "緊急給水栓", "ward": "都筑区", "address": "茅ケ崎中央32-1"}}, {"type": "Feature", "geometry": {"type": "Point", "coordinates": [139.571685, 35.521598]}, "properties": {"name": "都田小学校", "kind": "緊急給水栓", "ward": "都筑区", "address": "池辺町2831"}}, {"type": "Feature", "geometry": {"type": "Point", "coordinates": [139.562719, 35.547313]}, "properties": {"name": "荏田東第一小学校", "kind": "緊急給水栓", "ward": "都筑区", "address": "荏田東3-5-1"}}, {"type": "Feature", "geometry": {"type": "Point", "coordinates": [139.55729, 35.543295]}, "properties": {"name": "荏田南中学校", "kind": "緊急給水栓", "ward": "都筑区", "address": "荏田南2-5-1"}}, {"type": "Feature", "geometry": {"type": "Point", "coordinates": [139.557002, 35.531486]}, "properties": {"name": "川和中学校", "kind": "緊急給水栓", "ward": "都筑区", "address": "富士見が丘21-1"}}, {"type": "Feature", "geometry": {"type": "Point", "coordinates": [139.573381, 35.548245]}, "properties": {"name": "都筑中央公園", "kind": "緊急給水栓", "ward": "都筑区", "address": "荏田東4-10"}}, {"type": "Feature", "geometry": {"type": "Point", "coordinates": [139.590435, 35.564341]}, "properties": {"name": "山田富士公園", "kind": "緊急給水栓", "ward": "都筑区", "address": "北山田1-4"}}, {"type": "Feature", "geometry": {"type": "Point", "coordinates": [139.581369, 35.560142]}, "properties": {"name": "牛久保公園", "kind": "緊急給水栓", "ward": "都筑区", "address": "牛久保1-24"}}, {"type": "Feature", "geometry": {"type": "Point", "coordinates": [139.594081, 35.557941]}, "properties": {"name": "滝ケ谷公園", "kind": "緊急給水栓", "ward": "都筑区", "address": "北山田2-20"}}, {"type": "Feature", "geometry": {"type": "Point", "coordinates": [139.592632, 35.550874]}, "properties": {"name": "中川中学校", "kind": "緊急給水栓", "ward": "都筑区", "address": "大棚町240"}}, {"type": "Feature", "geometry": {"type": "Point", "coordinates": [139.564641, 35.54528]}, "properties": {"name": "鴨池公園", "kind": "緊急給水栓", "ward": "都筑区", "address": "荏田東3-2"}}, {"type": "Feature", "geometry": {"type": "Point", "coordinates": [139.582858, 35.540086]}, "properties": {"name": "茅ケ崎中学校", "kind": "緊急給水栓", "ward": "都筑区", "address": "茅ケ崎南1-10-1"}}, {"type": "Feature", "geometry": {"type": "Point", "coordinates": [139.56848, 35.563583]}, "properties": {"name": "烏山公園", "kind": "緊急給水栓", "ward": "都筑区", "address": "中川2-7"}}, {"type": "Feature", "geometry": {"type": "Point", "coordinates": [139.573738, 35.539238]}, "properties": {"name": "大原みねみち公園", "kind": "緊急給水栓", "ward": "都筑区", "address": "茅ケ崎南4-7"}}, {"type": "Feature", "geometry": {"type": "Point", "coordinates": [139.687719, 35.498372]}, "properties": {"name": "汐入小学校", "kind": "緊急給水栓", "ward": "鶴見区", "address": "汐入町2-36"}}, {"type": "Feature", "geometry": {"type": "Point", "coordinates": [139.648565, 35.501392]}, "properties": {"name": "工業用水道　東寺尾配水池", "kind": "緊急給水栓", "ward": "鶴見区", "address": "東寺尾1-16-28"}}, {"type": "Feature", "geometry": {"type": "Point", "coordinates": [139.68903, 35.516624]}, "properties": {"name": "市場公園", "kind": "緊急給水栓", "ward": "鶴見区", "address": "市場富士見町7"}}, {"type": "Feature", "geometry": {"type": "Point", "coordinates": [139.679736, 35.533028]}, "properties": {"name": "矢向小学校", "kind": "緊急給水栓", "ward": "鶴見区", "address": "矢向3-8-1"}}, {"type": "Feature", "geometry": {"type": "Point", "coordinates": [139.691803, 35.505964]}, "properties": {"name": "潮田中学校", "kind": "緊急給水栓", "ward": "鶴見区", "address": "向井町4-83"}}, {"type": "Feature", "geometry": {"type": "Point", "coordinates": [139.674265, 35.522253]}, "properties": {"name": "下末吉小学校", "kind": "緊急給水栓", "ward": "鶴見区", "address": "下末吉2-25-6"}}, {"type": "Feature", "geometry": {"type": "Point", "coordinates": [139.663002, 35.534003]}, "properties": {"name": "上末吉小学校", "kind": "緊急給水栓", "ward": "鶴見区", "address": "上末吉5-24-1"}}, {"type": "Feature", "geometry": {"type": "Point", "coordinates": [139.699165, 35.502342]}, "properties": {"name": "寛政中学校", "kind": "緊急給水栓", "ward": "鶴見区", "address": "寛政町23-1"}}, {"type": "Feature", "geometry": {"type": "Point", "coordinates": [139.639227, 35.512595]}, "properties": {"name": "上の宮中学校", "kind": "緊急給水栓", "ward": "鶴見区", "address": "上の宮1-26-33"}}, {"type": "Feature", "geometry": {"type": "Point", "coordinates": [139.675359, 35.52943]}, "properties": {"name": "矢向中学校", "kind": "緊急給水栓", "ward": "鶴見区", "address": "矢向1-8-24"}}, {"type": "Feature", "geometry": {"type": "Point", "coordinates": [139.659269, 35.518514]}, "properties": {"name": "寺尾中学校", "kind": "緊急給水栓", "ward": "鶴見区", "address": "北寺尾3-13-1"}}, {"type": "Feature", "geometry": {"type": "Point", "coordinates": [139.658728, 35.493677]}, "properties": {"name": "生麦中学校", "kind": "緊急給水栓", "ward": "鶴見区", "address": "岸谷2-1-1"}}, {"type": "Feature", "geometry": {"type": "Point", "coordinates": [139.664409, 35.522149]}, "properties": {"name": "末吉中学校", "kind": "緊急給水栓", "ward": "鶴見区", "address": "下末吉6-13-1"}}, {"type": "Feature", "geometry": {"type": "Point", "coordinates": [139.684525, 35.515087]}, "properties": {"name": "市場中学校", "kind": "緊急給水栓", "ward": "鶴見区", "address": "市場下町1-1"}}, {"type": "Feature", "geometry": {"type": "Point", "coordinates": [139.684451, 35.510226]}, "properties": {"name": "鶴見中学校", "kind": "緊急給水栓", "ward": "鶴見区", "address": "鶴見中央3-14-1"}}, {"type": "Feature", "geometry": {"type": "Point", "coordinates": [139.658101, 35.504356]}, "properties": {"name": "寺尾小学校", "kind": "緊急給水栓", "ward": "鶴見区", "address": "東寺尾5-19-1"}}, {"type": "Feature", "geometry": {"type": "Point", "coordinates": [139.681705, 35.499932]}, "properties": {"name": "下野谷小学校", "kind": "緊急給水栓", "ward": "鶴見区", "address": "下野谷町2-49"}}, {"type": "Feature", "geometry": {"type": "Point", "coordinates": [139.670976, 35.49496]}, "properties": {"name": "生麦小学校", "kind": "緊急給水栓", "ward": "鶴見区", "address": "生麦4-15-1"}}, {"type": "Feature", "geometry": {"type": "Point", "coordinates": [139.643735, 35.509893]}, "properties": {"name": "馬場小学校", "kind": "緊急給水栓", "ward": "鶴見区", "address": "馬場7-20-1"}}, {"type": "Feature", "geometry": {"type": "Point", "coordinates": [139.663698, 35.50375]}, "properties": {"name": "東台小学校", "kind": "緊急給水栓", "ward": "鶴見区", "address": "東寺尾東台12-1"}}, {"type": "Feature", "geometry": {"type": "Point", "coordinates": [139.651343, 35.517751]}, "properties": {"name": "獅子ケ谷小学校", "kind": "緊急給水栓", "ward": "鶴見区", "address": "獅子ケ谷1-19-1"}}, {"type": "Feature", "geometry": {"type": "Point", "coordinates": [139.683549, 35.522692]}, "properties": {"name": "市場小学校", "kind": "緊急給水栓", "ward": "鶴見区", "address": "元宮1-13-1"}}, {"type": "Feature", "geometry": {"type": "Point", "coordinates": [139.655043, 35.528713]}, "properties": {"name": "駒岡小学校", "kind": "緊急給水栓", "ward": "鶴見区", "address": "駒岡3-14-1"}}, {"type": "Feature", "geometry": {"type": "Point", "coordinates": [139.682277, 35.508836]}, "properties": {"name": "鶴見区総合庁舎", "kind": "緊急給水栓", "ward": "鶴見区", "address": "鶴見中央3-20-1"}}, {"type": "Feature", "geometry": {"type": "Point", "coordinates": [139.655116, 35.5073]}, "properties": {"name": "上寺尾小学校", "kind": "緊急給水栓", "ward": "鶴見区", "address": "馬場3-21-21"}}, {"type": "Feature", "geometry": {"type": "Point", "coordinates": [139.674682, 35.511983]}, "properties": {"name": "豊岡小学校", "kind": "緊急給水栓", "ward": "鶴見区", "address": "豊岡町27-1"}}, {"type": "Feature", "geometry": {"type": "Point", "coordinates": [139.637984, 35.496118]}, "properties": {"name": "大口台小学校", "kind": "緊急給水栓", "ward": "神奈川区", "address": "大口仲町460"}}, {"type": "Feature", "geometry": {"type": "Point", "coordinates": [139.628285, 35.475769]}, "properties": {"name": "反町公園", "kind": "緊急給水栓", "ward": "神奈川区", "address": "反町1-12"}}, {"type": "Feature", "geometry": {"type": "Point", "coordinates": [139.602703, 35.469432]}, "properties": {"name": "三ツ沢公園", "kind": "緊急給水栓", "ward": "神奈川区", "address": "三ツ沢西町3-1"}}, {"type": "Feature", "geometry": {"type": "Point", "coordinates": [139.637393, 35.484065]}, "properties": {"name": "浦島小学校", "kind": "緊急給水栓", "ward": "神奈川区", "address": "浦島丘16"}}, {"type": "Feature", "geometry": {"type": "Point", "coordinates": [139.613812, 35.491508]}, "properties": {"name": "六角橋中学校", "kind": "緊急給水栓", "ward": "神奈川区", "address": "六角橋5-33-1"}}, {"type": "Feature", "geometry": {"type": "Point", "coordinates": [139.618286, 35.470902]}, "properties": {"name": "沢渡中央公園", "kind": "緊急給水栓", "ward": "神奈川区", "address": "沢渡4-1"}}, {"type": "Feature", "geometry": {"type": "Point", "coordinates": [139.654244, 35.489866]}, "properties": {"name": "日産新子安グラウンド", "kind": "緊急給水栓", "ward": "神奈川区", "address": "新子安1-18"}}, {"type": "Feature", "geometry": {"type": "Point", "coordinates": [139.578499, 35.496247]}, "properties": {"name": "菅田小学校", "kind": "緊急給水栓", "ward": "神奈川区", "address": "菅田町674"}}, {"type": "Feature", "geometry": {"type": "Point", "coordinates": [139.619739, 35.485081]}, "properties": {"name": "神奈川大学裏門", "kind": "緊急給水栓", "ward": "神奈川区", "address": "六角橋4-7"}}, {"type": "Feature", "geometry": {"type": "Point", "coordinates": [139.6159, 35.479748]}, "properties": {"name": "松本中学校", "kind": "緊急給水栓", "ward": "神奈川区", "address": "三ツ沢下町30-1"}}, {"type": "Feature", "geometry": {"type": "Point", "coordinates": [139.642091, 35.485972]}, "properties": {"name": "浦島丘中学校", "kind": "緊急給水栓", "ward": "神奈川区", "address": "白幡東町27-1"}}, {"type": "Feature", "geometry": {"type": "Point", "coordinates": [139.58772, 35.4935]}, "properties": {"name": "菅田中学校", "kind": "緊急給水栓", "ward": "神奈川区", "address": "菅田町2017"}}, {"type": "Feature", "geometry": {"type": "Point", "coordinates": [139.62414, 35.477559]}, "properties": {"name": "栗田谷中学校", "kind": "緊急給水栓", "ward": "神奈川区", "address": "栗田谷3-1"}}, {"type": "Feature", "geometry": {"type": "Point", "coordinates": [139.587802, 35.488749]}, "properties": {"name": "羽沢小学校", "kind": "緊急給水栓", "ward": "神奈川区", "address": "羽沢町935"}}, {"type": "Feature", "geometry": {"type": "Point", "coordinates": [139.602387, 35.482112]}, "properties": {"name": "中丸小学校", "kind": "緊急給水栓", "ward": "神奈川区", "address": "神大寺3-17-1"}}, {"type": "Feature", "geometry": {"type": "Point", "coordinates": [139.586464, 35.496939]}, "properties": {"name": "池上小学校", "kind": "緊急給水栓", "ward": "神奈川区", "address": "菅田町1393"}}, {"type": "Feature", "geometry": {"type": "Point", "coordinates": [139.631952, 35.492277]}, "properties": {"name": "白幡小学校", "kind": "緊急給水栓", "ward": "神奈川区", "address": "白幡上町11-1"}}, {"type": "Feature", "geometry": {"type": "Point", "coordinates": [139.609548, 35.487267]}, "properties": {"name": "神大寺小学校", "kind": "緊急給水栓", "ward": "神奈川区", "address": "神大寺3-34-1"}}, {"type": "Feature", "geometry": {"type": "Point", "coordinates": [139.651383, 35.49568]}, "properties": {"name": "錦台中学校", "kind": "緊急給水栓", "ward": "神奈川区", "address": "西寺尾3-10-1"}}, {"type": "Feature", "geometry": {"type": "Point", "coordinates": [139.630714, 35.471567]}, "properties": {"name": "幸ケ谷小学校", "kind": "緊急給水栓", "ward": "神奈川区", "address": "幸ケ谷1-1"}}, {"type": "Feature", "geometry": {"type": "Point", "coordinates": [139.620802, 35.490082]}, "properties": {"name": "神橋小学校", "kind": "緊急給水栓", "ward": "神奈川区", "address": "六角橋2-34-19"}}, {"type": "Feature", "geometry": {"type": "Point", "coordinates": [139.637623, 35.555342]}, "properties": {"name": "慶応大学ラグビー場", "kind": "緊急給水栓", "ward": "港北区", "address": "下田町1-1"}}, {"type": "Feature", "geometry": {"type": "Point", "coordinates": [139.624599, 35.539092]}, "properties": {"name": "グリーンサラウンドシティ", "kind": "緊急給水栓", "ward": "港北区", "address": "綱島上町1"}}, {"type": "Feature", "geometry": {"type": "Point", "coordinates": [139.62008, 35.55599]}, "properties": {"name": "高田小学校", "kind": "緊急給水栓", "ward": "港北区", "address": "高田町1774"}}, {"type": "Feature", "geometry": {"type": "Point", "coordinates": [139.620005, 35.521034]}, "properties": {"name": "港北水再生センター", "kind": "緊急給水栓", "ward": "港北区", "address": "大倉山7-40"}}, {"type": "Feature", "geometry": {"type": "Point", "coordinates": [139.632444, 35.519136]}, "properties": {"name": "港北区総合庁舎", "kind": "緊急給水栓", "ward": "港北区", "address": "大豆戸町26-1"}}, {"type": "Feature", "geometry": {"type": "Point", "coordinates": [139.634344, 35.509291]}, "properties": {"name": "菊名町公園", "kind": "緊急給水栓", "ward": "港北区", "address": "菊名4-4-1"}}, {"type": "Feature", "geometry": {"type": "Point", "coordinates": [139.625098, 35.497262]}, "properties": {"name": "武相学園", "kind": "緊急給水栓", "ward": "港北区", "address": "仲手原2-34-1"}}, {"type": "Feature", "geometry": {"type": "Point", "coordinates": [139.627384, 35.551253]}, "properties": {"name": "日吉台西中学校", "kind": "緊急給水栓", "ward": "港北区", "address": "日吉本町5-44-1"}}, {"type": "Feature", "geometry": {"type": "Point", "coordinates": [139.636003, 35.546259]}, "properties": {"name": "日吉台中学校", "kind": "緊急給水栓", "ward": "港北区", "address": "日吉本町4-9-1"}}, {"type": "Feature", "geometry": {"type": "Point", "coordinates": [139.61992, 35.513212]}, "properties": {"name": "横浜アリーナ", "kind": "緊急給水栓", "ward": "港北区", "address": "新横浜3-10"}}, {"type": "Feature", "geometry": {"type": "Point", "coordinates": [139.642343, 35.528108]}, "properties": {"name": "樽町中学校", "kind": "緊急給水栓", "ward": "港北区", "address": "樽町4-15-1"}}, {"type": "Feature", "geometry": {"type": "Point", "coordinates": [139.621012, 35.504351]}, "properties": {"name": "篠原中学校", "kind": "緊急給水栓", "ward": "港北区", "address": "篠原町1342-3"}}, {"type": "Feature", "geometry": {"type": "Point", "coordinates": [139.607621, 35.522644]}, "properties": {"name": "新羽中学校", "kind": "緊急給水栓", "ward": "港北区", "address": "新羽町1434-4"}}, {"type": "Feature", "geometry": {"type": "Point", "coordinates": [139.621868, 35.541096]}, "properties": {"name": "新田中学校", "kind": "緊急給水栓", "ward": "港北区", "address": "新吉田東5-25-1"}}, {"type": "Feature", "geometry": {"type": "Point", "coordinates": [139.62447, 35.520818]}, "properties": {"name": "大綱中学校", "kind": "緊急給水栓", "ward": "港北区", "address": "大倉山3-40-1"}}, {"type": "Feature", "geometry": {"type": "Point", "coordinates": [139.640324, 35.537828]}, "properties": {"name": "綱島東小学校", "kind": "緊急給水栓", "ward": "港北区", "address": "綱島東3-1-30"}}, {"type": "Feature", "geometry": {"type": "Point", "coordinates": [139.657305, 35.553646]}, "properties": {"name": "矢上小学校", "kind": "緊急給水栓", "ward": "港北区", "address": "日吉3-23-1"}}, {"type": "Feature", "geometry": {"type": "Point", "coordinates": [139.636178, 35.49989]}, "properties": {"name": "港北小学校", "kind": "緊急給水栓", "ward": "港北区", "address": "菊名2-15-1"}}, {"type": "Feature", "geometry": {"type": "Point", "coordinates": [139.60314, 35.505148]}, "properties": {"name": "城郷小学校", "kind": "緊急給水栓", "ward": "港北区", "address": "鳥山町814"}}, {"type": "Feature", "geometry": {"type": "Point", "coordinates": [139.631249, 35.544005]}, "properties": {"name": "北綱島小学校", "kind": "緊急給水栓", "ward": "港北区", "address": "綱島西5-14-40"}}, {"type": "Feature", "geometry": {"type": "Point", "coordinates": [139.639995, 35.544575]}, "properties": {"name": "日吉南小学校", "kind": "緊急給水栓", "ward": "港北区", "address": "日吉本町4-2-6"}}, {"type": "Feature", "geometry": {"type": "Point", "coordinates": [139.619865, 35.523887]}, "properties": {"name": "太尾小学校", "kind": "緊急給水栓", "ward": "港北区", "address": "大倉山7-34-1"}}, {"type": "Feature", "geometry": {"type": "Point", "coordinates": [139.629854, 35.531256]}, "properties": {"name": "大曽根小学校", "kind": "緊急給水栓", "ward": "港北区", "address": "大曽根2-31-1"}}, {"type": "Feature", "geometry": {"type": "Point", "coordinates": [139.609968, 35.534042]}, "properties": {"name": "新田小学校", "kind": "緊急給水栓", "ward": "港北区", "address": "新吉田町3226-1"}}, {"type": "Feature", "geometry": {"type": "Point", "coordinates": [139.61558, 35.502036]}, "properties": {"name": "篠原西小学校", "kind": "緊急給水栓", "ward": "港北区", "address": "篠原町1241-1"}}, {"type": "Feature", "geometry": {"type": "Point", "coordinates": [139.642683, 35.552728]}, "properties": {"name": "日吉台小学校", "kind": "緊急給水栓", "ward": "港北区", "address": "日吉本町1-34-21"}}, {"type": "Feature", "geometry": {"type": "Point", "coordinates": [139.61224, 35.549506]}, "properties": {"name": "新吉田第二小学校", "kind": "緊急給水栓", "ward": "港北区", "address": "新吉田町491-1"}}, {"type": "Feature", "geometry": {"type": "Point", "coordinates": [139.597566, 35.505877]}, "properties": {"name": "小机小学校", "kind": "緊急給水栓", "ward": "港北区", "address": "小机町1382-10"}}, {"type": "Feature", "geometry": {"type": "Point", "coordinates": [139.561406, 35.498553]}, "properties": {"name": "竹山中公園", "kind": "緊急給水栓", "ward": "緑区", "address": "竹山3-1-1"}}, {"type": "Feature", "geometry": {"type": "Point", "coordinates": [139.524108, 35.510303]}, "properties": {"name": "県営ハイム三保", "kind": "緊急給水栓", "ward": "緑区", "address": "三保町2570"}}, {"type": "Feature", "geometry": {"type": "Point", "coordinates": [139.507709, 35.521132]}, "properties": {"name": "中山谷第二公園", "kind": "緊急給水栓", "ward": "緑区", "address": "十日市場町1865-176"}}, {"type": "Feature", "geometry": {"type": "Point", "coordinates": [139.537739, 35.512742]}, "properties": {"name": "緑区総合庁舎", "kind": "緊急給水栓", "ward": "緑区", "address": "寺山町１１８"}}, {"type": "Feature", "geometry": {"type": "Point", "coordinates": [139.506896, 35.511307]}, "properties": {"name": "霧が丘中学校", "kind": "緊急給水栓", "ward": "緑区", "address": "霧が丘4-4"}}, {"type": "Feature", "geometry": {"type": "Point", "coordinates": [139.560748, 35.5074]}, "properties": {"name": "鴨居中学校", "kind": "緊急給水栓", "ward": "緑区", "address": "鴨居5-12-35"}}, {"type": "Feature", "geometry": {"type": "Point", "coordinates": [139.502597, 35.525628]}, "properties": {"name": "いぶき野小学校", "kind": "緊急給水栓", "ward": "緑区", "address": "いぶき野14-1"}}, {"type": "Feature", "geometry": {"type": "Point", "coordinates": [139.49816, 35.511198]}, "properties": {"name": "旧霧が丘第一小学校", "kind": "緊急給水栓", "ward": "緑区", "address": "霧が丘6-13"}}, {"type": "Feature", "geometry": {"type": "Point", "coordinates": [139.538629, 35.524841]}, "properties": {"name": "山下小学校", "kind": "緊急給水栓", "ward": "緑区", "address": "北八朔町1865-3"}}, {"type": "Feature", "geometry": {"type": "Point", "coordinates": [139.491602, 35.530186]}, "properties": {"name": "長津田小学校", "kind": "緊急給水栓", "ward": "緑区", "address": "長津田町2330"}}, {"type": "Feature", "geometry": {"type": "Point", "coordinates": [139.571436, 35.503707]}, "properties": {"name": "東鴨居中学校", "kind": "緊急給水栓", "ward": "緑区", "address": "鴨居3-39-1"}}, {"type": "Feature", "geometry": {"type": "Point", "coordinates": [139.520327, 35.518312]}, "properties": {"name": "新治小学校", "kind": "緊急給水栓", "ward": "緑区", "address": "新治町768"}}, {"type": "Feature", "geometry": {"type": "Point", "coordinates": [139.581432, 35.504828]}, "properties": {"name": "東本郷小学校", "kind": "緊急給水栓", "ward": "緑区", "address": "東本郷5-40-1"}}, {"type": "Feature", "geometry": {"type": "Point", "coordinates": [139.498859, 35.533844]}, "properties": {"name": "田奈中学校", "kind": "緊急給水栓", "ward": "緑区", "address": "長津田2-24-1"}}, {"type": "Feature", "geometry": {"type": "Point", "coordinates": [139.547532, 35.506942]}, "properties": {"name": "上山小学校", "kind": "緊急給水栓", "ward": "緑区", "address": "上山2-5-1"}}, {"type": "Feature", "geometry": {"type": "Point", "coordinates": [139.548068, 35.510034]}, "properties": {"name": "中山小学校", "kind": "緊急給水栓", "ward": "緑区", "address": "中山町925"}}]}