{"type": "FeatureCollection", "features": [{"type": "Feature", "geometry": {"type": "Point", "coordinates": [139.671097, 35.495476]}, "properties": {"name": "生麦小学校", "ward": "鶴見区", "address": "神奈川県横浜市鶴見区生麦四丁目15-1"}}, {"type": "Feature", "geometry": {"type": "Point", "coordinates": [139.675083, 35.512393]}, "properties": {"name": "豊岡小学校", "ward": "鶴見区", "address": "神奈川県横浜市鶴見区豊岡町27-1"}}, {"type": "Feature", "geometry": {"type": "Point", "coordinates": [139.683825, 35.508998]}, "properties": {"name": "鶴見小学校", "ward": "鶴見区", "address": "神奈川県横浜市鶴見区鶴見中央三丁目19-1"}}, {"type": "Feature", "geometry": {"type": "Point", "coordinates": [139.689965, 35.506527]}, "properties": {"name": "潮田小学校", "ward": "鶴見区", "address": "神奈川県横浜市鶴見区向井町3丁目82-1"}}, {"type": "Feature", "geometry": {"type": "Point", "coordinates": [139.681623, 35.500493]}, "properties": {"name": "下野谷小学校", "ward": "鶴見区", "address": "神奈川県横浜市鶴見区下野谷町2丁目49"}}, {"type": "Feature", "geometry": {"type": "Point", "coordinates": [139.682952, 35.52291]}, "properties": {"name": "市場小学校", "ward": "鶴見区", "address": "神奈川県横浜市鶴見区元宮一丁目13-1"}}, {"type": "Feature", "geometry": {"type": "Point", "coordinates": [139.69203, 35.51222]}, "properties": {"name": "平安小学校", "ward": "鶴見区", "address": "神奈川県横浜市鶴見区平安町2丁目9-1"}}, {"type": "Feature", "geometry": {"type": "Point", "coordinates": [139.669463, 35.524988]}, "properties": {"name": "末吉小学校", "ward": "鶴見区", "address": "神奈川県横浜市鶴見区上末吉一丁目9-1"}}, {"type": "Feature", "geometry": {"type": "Point", "coordinates": [139.662214, 35.533971]}, "properties": {"name": "上末吉小学校", "ward": "鶴見区", "address": "神奈川県横浜市鶴見区上末吉五丁目24-1"}}, {"type": "Feature", "geometry": {"type": "Point", "coordinates": [139.674912, 35.52263]}, "properties": {"name": "下末吉小学校", "ward": "鶴見区", "address": "神奈川県横浜市鶴見区下末吉二丁目25-6"}}, {"type": "Feature", "geometry": {"type": "Point", "coordinates": [139.654836, 35.515938]}, "properties": {"name": "旭小学校", "ward": "鶴見区", "address": "神奈川県横浜市鶴見区北寺尾四丁目25-1"}}, {"type": "Feature", "geometry": {"type": "Point", "coordinates": [139.664332, 35.503477]}, "properties": {"name": "東台小学校", "ward": "鶴見区", "address": "神奈川県横浜市鶴見区東寺尾東台12-1"}}, {"type": "Feature", "geometry": {"type": "Point", "coordinates": [139.662077, 35.493757]}, "properties": {"name": "岸谷小学校", "ward": "鶴見区", "address": "神奈川県横浜市鶴見区岸谷一丁目6-1"}}, {"type": "Feature", "geometry": {"type": "Point", "coordinates": [139.679358, 35.533248]}, "properties": {"name": "矢向小学校", "ward": "鶴見区", "address": "神奈川県横浜市鶴見区矢向三丁目8-1"}}, {"type": "Feature", "geometry": {"type": "Point", "coordinates": [139.692913, 35.500871]}, "properties": {"name": "入船小学校", "ward": "鶴見区", "address": "神奈川県横浜市鶴見区浜町1丁目1-1"}}, {"type": "Feature", "geometry": {"type": "Point", "coordinates": [139.657572, 35.503922]}, "properties": {"name": "寺尾小学校", "ward": "鶴見区", "address": "神奈川県横浜市鶴見区東寺尾五丁目19-1"}}, {"type": "Feature", "geometry": {"type": "Point", "coordinates": [139.687934, 35.498656]}, "properties": {"name": "汐入小学校", "ward": "鶴見区", "address": "神奈川県横浜市鶴見区汐入町2丁目36"}}, {"type": "Feature", "geometry": {"type": "Point", "coordinates": [139.644313, 35.509814]}, "properties": {"name": "馬場小学校", "ward": "鶴見区", "address": "神奈川県横浜市鶴見区馬場七丁目20-1"}}, {"type": "Feature", "geometry": {"type": "Point", "coordinates": [139.654787, 35.528692]}, "properties": {"name": "駒岡小学校", "ward": "鶴見区", "address": "神奈川県横浜市鶴見区駒岡三丁目14-1"}}, {"type": "Feature", "geometry": {"type": "Point", "coordinates": [139.651022, 35.516989]}, "properties": {"name": "獅子ケ谷小学校", "ward": "鶴見区", "address": "神奈川県横浜市鶴見区獅子ケ谷一丁目19-1"}}, {"type": "Feature", "geometry": {"type": "Point", "coordinates": [139.654112, 35.507326]}, "properties": {"name": "上寺尾小学校", "ward": "鶴見区", "address": "神奈川県横浜市鶴見区馬場三丁目21-21"}}, {"type": "Feature", "geometry": {"type": "Point", "coordinates": [139.677086, 35.532679]}, "properties": {"name": "新鶴見小学校", "ward": "鶴見区", "address": "神奈川県横浜市鶴見区江ケ崎町2-1"}}, {"type": "Feature", "geometry": {"type": "Point", "coordinates": [139.683662, 35.514829]}, "properties": {"name": "市場中学校", "ward": "鶴見区", "address": "神奈川県横浜市鶴見区市場下町1-1"}}, {"type": "Feature", "geometry": {"type": "Point", "coordinates": [139.67521, 35.528939]}, "properties": {"name": "矢向中学校", "ward": "鶴見区", "address": "神奈川県横浜市鶴見区矢向一丁目8-24"}}, {"type": "Feature", "geometry": {"type": "Point", "coordinates": [139.684688, 35.509598]}, "properties": {"name": "鶴見中学校", "ward": "鶴見区", "address": "神奈川県横浜市鶴見区鶴見中央三丁目14-1"}}, {"type": "Feature", "geometry": {"type": "Point", "coordinates": [139.664199, 35.522902]}, "properties": {"name": "末吉中学校", "ward": "鶴見区", "address": "神奈川県横浜市鶴見区下末吉六丁目13-1"}}, {"type": "Feature", "geometry": {"type": "Point", "coordinates": [139.659175, 35.519694]}, "properties": {"name": "寺尾中学校", "ward": "鶴見区", "address": "神奈川県横浜市鶴見区北寺尾三丁目13-1"}}, {"type": "Feature", "geometry": {"type": "Point", "coordinates": [139.659608, 35.493569]}, "properties": {"name": "生麦中学校", "ward": "鶴見区", "address": "神奈川県横浜市鶴見区岸谷二丁目1-1"}}, {"type": "Feature", "geometry": {"type": "Point", "coordinates": [139.691693, 35.506397]}, "properties": {"name": "潮田中学校", "ward": "鶴見区", "address": "神奈川県横浜市鶴見区向井町4丁目83"}}, {"type": "Feature", "geometry": {"type": "Point", "coordinates": [139.699778, 35.501681]}, "properties": {"name": "寛政中学校", "ward": "鶴見区", "address": "神奈川県横浜市鶴見区寛政町23-1"}}, {"type": "Feature", "geometry": {"type": "Point", "coordinates": [139.639064, 35.51222]}, "properties": {"name": "上の宮中学校", "ward": "鶴見区", "address": "神奈川県横浜市鶴見区上の宮一丁目26-33"}}, {"type": "Feature", "geometry": {"type": "Point", "coordinates": [139.608596, 35.475958]}, "properties": {"name": "三ツ沢小学校", "ward": "神奈川区", "address": "神奈川県横浜市神奈川区三ッ沢中町4-17"}}, {"type": "Feature", "geometry": {"type": "Point", "coordinates": [139.625981, 35.47352]}, "properties": {"name": "青木小学校", "ward": "神奈川区", "address": "神奈川県横浜市神奈川区桐畑17"}}, {"type": "Feature", "geometry": {"type": "Point", "coordinates": [139.628701, 35.480405]}, "properties": {"name": "二谷小学校", "ward": "神奈川区", "address": "神奈川県横浜市神奈川区平川町11-1"}}, {"type": "Feature", "geometry": {"type": "Point", "coordinates": [139.630846, 35.471573]}, "properties": {"name": "幸ケ谷小学校", "ward": "神奈川区", "address": "神奈川県横浜市神奈川区幸ケ谷1-1"}}, {"type": "Feature", "geometry": {"type": "Point", "coordinates": [139.636977, 35.484161]}, "properties": {"name": "浦島小学校", "ward": "神奈川区", "address": "神奈川県横浜市神奈川区浦島丘16"}}, {"type": "Feature", "geometry": {"type": "Point", "coordinates": [139.65289, 35.488324]}, "properties": {"name": "子安小学校", "ward": "神奈川区", "address": "神奈川県横浜市神奈川区新子安一丁目24-1"}}, {"type": "Feature", "geometry": {"type": "Point", "coordinates": [139.632012, 35.491642]}, "properties": {"name": "白幡小学校", "ward": "神奈川区", "address": "神奈川県横浜市神奈川区白幡上町11-1"}}, {"type": "Feature", "geometry": {"type": "Point", "coordinates": [139.621015, 35.489772]}, "properties": {"name": "神橋小学校", "ward": "神奈川区", "address": "神奈川県横浜市神奈川区六角橋二丁目34-19"}}, {"type": "Feature", "geometry": {"type": "Point", "coordinates": [139.586101, 35.496431]}, "properties": {"name": "池上小学校", "ward": "神奈川区", "address": "神奈川県横浜市神奈川区菅田町1393"}}, {"type": "Feature", "geometry": {"type": "Point", "coordinates": [139.645406, 35.49751]}, "properties": {"name": "西寺尾小学校", "ward": "神奈川区", "address": "神奈川県横浜市神奈川区西寺尾二丁目5-1"}}, {"type": "Feature", "geometry": {"type": "Point", "coordinates": [139.646927, 35.499233]}, "properties": {"name": "西寺尾第二小学校", "ward": "神奈川区", "address": "神奈川県横浜市神奈川区西寺尾二丁目15-1"}}, {"type": "Feature", "geometry": {"type": "Point", "coordinates": [139.637735, 35.495759]}, "properties": {"name": "大口台小学校", "ward": "神奈川区", "address": "神奈川県横浜市神奈川区大口仲町460"}}, {"type": "Feature", "geometry": {"type": "Point", "coordinates": [139.623344, 35.482178]}, "properties": {"name": "斎藤分小学校", "ward": "神奈川区", "address": "神奈川県横浜市神奈川区斎藤分町34-1"}}, {"type": "Feature", "geometry": {"type": "Point", "coordinates": [139.635949, 35.477658]}, "properties": {"name": "神奈川小学校", "ward": "神奈川区", "address": "神奈川県横浜市神奈川区東神奈川二丁目35-1"}}, {"type": "Feature", "geometry": {"type": "Point", "coordinates": [139.609141, 35.487694]}, "properties": {"name": "神大寺小学校", "ward": "神奈川区", "address": "神奈川県横浜市神奈川区神大寺三丁目34-1"}}, {"type": "Feature", "geometry": {"type": "Point", "coordinates": [139.602905, 35.48198]}, "properties": {"name": "中丸小学校", "ward": "神奈川区", "address": "神奈川県横浜市神奈川区神大寺三丁目17-1"}}, {"type": "Feature", "geometry": {"type": "Point", "coordinates": [139.587395, 35.488373]}, "properties": {"name": "羽沢小学校", "ward": "神奈川区", "address": "神奈川県横浜市神奈川区羽沢町935"}}, {"type": "Feature", "geometry": {"type": "Point", "coordinates": [139.577859, 35.496339]}, "properties": {"name": "菅田小学校", "ward": "神奈川区", "address": "神奈川県横浜市神奈川区菅田町674"}}, {"type": "Feature", "geometry": {"type": "Point", "coordinates": [139.612066, 35.485198]}, "properties": {"name": "南神大寺小学校", "ward": "神奈川区", "address": "神奈川県横浜市神奈川区神大寺二丁目9-16"}}, {"type": "Feature", "geometry": {"type": "Point", "coordinates": [139.624364, 35.477374]}, "properties": {"name": "栗田谷中学校", "ward": "神奈川区", "address": "神奈川県横浜市神奈川区栗田谷3-1"}}, {"type": "Feature", "geometry": {"type": "Point", "coordinates": [139.641181, 35.486238]}, "properties": {"name": "浦島丘中学校", "ward": "神奈川区", "address": "神奈川県横浜市神奈川区白幡東町27-1"}}, {"type": "Feature", "geometry": {"type": "Point", "coordinates": [139.650866, 35.496417]}, "properties": {"name": "錦台中学校", "ward": "神奈川区", "address": "神奈川県横浜市神奈川区西寺尾三丁目10-1"}}, {"type": "Feature", "geometry": {"type": "Point", "coordinates": [139.602688, 35.504949]}, "properties": {"name": "城郷小学校", "ward": "港北区", "address": "神奈川県横浜市港北区鳥山町814"}}, {"type": "Feature", "geometry": {"type": "Point", "coordinates": [139.625923, 35.518671]}, "properties": {"name": "大綱小学校", "ward": "港北区", "address": "神奈川県横浜市港北区大倉山四丁目2-1"}}, {"type": "Feature", "geometry": {"type": "Point", "coordinates": [139.630114, 35.531659]}, "properties": {"name": "大曽根小学校", "ward": "港北区", "address": "神奈川県横浜市港北区大曽根二丁目31-1"}}, {"type": "Feature", "geometry": {"type": "Point", "coordinates": [139.628269, 35.537013]}, "properties": {"name": "綱島小学校", "ward": "港北区", "address": "神奈川県横浜市港北区綱島西三丁目11-1"}}, {"type": "Feature", "geometry": {"type": "Point", "coordinates": [139.643362, 35.55261]}, "properties": {"name": "日吉台小学校", "ward": "港北区", "address": "神奈川県横浜市港北区日吉本町一丁目34-21"}}, {"type": "Feature", "geometry": {"type": "Point", "coordinates": [139.63528, 35.499866]}, "properties": {"name": "港北小学校", "ward": "港北区", "address": "神奈川県横浜市港北区菊名二丁目15-1"}}, {"type": "Feature", "geometry": {"type": "Point", "coordinates": [139.634992, 35.512915]}, "properties": {"name": "菊名小学校", "ward": "港北区", "address": "神奈川県横浜市港北区菊名五丁目18-1"}}, {"type": "Feature", "geometry": {"type": "Point", "coordinates": [139.609837, 35.533455]}, "properties": {"name": "新田小学校", "ward": "港北区", "address": "神奈川県横浜市港北区新吉田町3226-1"}}, {"type": "Feature", "geometry": {"type": "Point", "coordinates": [139.617114, 35.556928]}, "properties": {"name": "高田中学校", "ward": "港北区", "address": "神奈川県横浜市港北区高田町2439"}}, {"type": "Feature", "geometry": {"type": "Point", "coordinates": [139.657642, 35.553993]}, "properties": {"name": "矢上小学校", "ward": "港北区", "address": "神奈川県横浜市港北区日吉三丁目23-1"}}, {"type": "Feature", "geometry": {"type": "Point", "coordinates": [139.63517, 35.552521]}, "properties": {"name": "駒林小学校", "ward": "港北区", "address": "神奈川県横浜市港北区日吉本町二丁目51-1"}}, {"type": "Feature", "geometry": {"type": "Point", "coordinates": [139.62683, 35.503027]}, "properties": {"name": "篠原小学校", "ward": "港北区", "address": "神奈川県横浜市港北区篠原東三丁目27-1"}}, {"type": "Feature", "geometry": {"type": "Point", "coordinates": [139.630245, 35.557621]}, "properties": {"name": "下田小学校", "ward": "港北区", "address": "神奈川県横浜市港北区下田町四丁目10-1"}}, {"type": "Feature", "geometry": {"type": "Point", "coordinates": [139.639253, 35.544605]}, "properties": {"name": "日吉南小学校", "ward": "港北区", "address": "神奈川県横浜市港北区日吉本町四丁目2-6"}}, {"type": "Feature", "geometry": {"type": "Point", "coordinates": [139.61496, 35.501627]}, "properties": {"name": "篠原西小学校", "ward": "港北区", "address": "神奈川県横浜市港北区篠原町1241-1"}}, {"type": "Feature", "geometry": {"type": "Point", "coordinates": [139.617761, 35.538247]}, "properties": {"name": "新吉田小学校", "ward": "港北区", "address": "神奈川県横浜市港北区新吉田東六丁目44-1"}}, {"type": "Feature", "geometry": {"type": "Point", "coordinates": [139.640768, 35.537515]}, "properties": {"name": "綱島東小学校", "ward": "港北区", "address": "神奈川県横浜市港北区綱島東三丁目1-30"}}, {"type": "Feature", "geometry": {"type": "Point", "coordinates": [139.638879, 35.52362]}, "properties": {"name": "師岡小学校", "ward": "港北区", "address": "神奈川県横浜市港北区師岡町986"}}, {"type": "Feature", "geometry": {"type": "Point", "coordinates": [139.625108, 35.552304]}, "properties": {"name": "高田東小学校", "ward": "港北区", "address": "神奈川県横浜市港北区高田東二丁目33-1"}}, {"type": "Feature", "geometry": {"type": "Point", "coordinates": [139.619372, 35.524259]}, "properties": {"name": "太尾小学校", "ward": "港北区", "address": "神奈川県横浜市港北区大倉山七丁目34-1"}}, {"type": "Feature", "geometry": {"type": "Point", "coordinates": [139.608261, 35.522794]}, "properties": {"name": "新羽小学校", "ward": "港北区", "address": "神奈川県横浜市港北区新羽町1452-2"}}, {"type": "Feature", "geometry": {"type": "Point", "coordinates": [139.630527, 35.544039]}, "properties": {"name": "北綱島小学校", "ward": "港北区", "address": "神奈川県横浜市港北区綱島西五丁目14-40"}}, {"type": "Feature", "geometry": {"type": "Point", "coordinates": [139.612779, 35.550032]}, "properties": {"name": "新吉田第二小学校", "ward": "港北区", "address": "神奈川県横浜市港北区新吉田町491-1"}}, {"type": "Feature", "geometry": {"type": "Point", "coordinates": [139.622152, 35.515922]}, "properties": {"name": "大豆戸小学校", "ward": "港北区", "address": "神奈川県横浜市港北区大豆戸町759"}}, {"type": "Feature", "geometry": {"type": "Point", "coordinates": [139.597816, 35.505328]}, "properties": {"name": "小机小学校", "ward": "港北区", "address": "神奈川県横浜市港北区小机町1382-10"}}, {"type": "Feature", "geometry": {"type": "Point", "coordinates": [139.587051, 35.505582]}, "properties": {"name": "城郷中学校", "ward": "港北区", "address": "神奈川県横浜市港北区小机町325"}}, {"type": "Feature", "geometry": {"type": "Point", "coordinates": [139.622647, 35.540924]}, "properties": {"name": "新田中学校", "ward": "港北区", "address": "神奈川県横浜市港北区新吉田東五丁目25-1"}}, {"type": "Feature", "geometry": {"type": "Point", "coordinates": [139.642548, 35.528398]}, "properties": {"name": "樽町中学校", "ward": "港北区", "address": "神奈川県横浜市港北区樽町四丁目15-1"}}, {"type": "Feature", "geometry": {"type": "Point", "coordinates": [139.538088, 35.525052]}, "properties": {"name": "山下小学校", "ward": "緑区", "address": "神奈川県横浜市緑区北八朔町1865-3"}}, {"type": "Feature", "geometry": {"type": "Point", "coordinates": [139.56642, 35.50871]}, "properties": {"name": "鴨居小学校", "ward": "緑区", "address": "神奈川県横浜市緑区鴨居四丁目7-15"}}, {"type": "Feature", "geometry": {"type": "Point", "coordinates": [139.520022, 35.517841]}, "properties": {"name": "新治小学校", "ward": "緑区", "address": "神奈川県横浜市緑区新治町768"}}, {"type": "Feature", "geometry": {"type": "Point", "coordinates": [139.53573, 35.508743]}, "properties": {"name": "森の台小学校", "ward": "緑区", "address": "神奈川県横浜市緑区森の台13-1"}}, {"type": "Feature", "geometry": {"type": "Point", "coordinates": [139.491124, 35.529996]}, "properties": {"name": "長津田小学校", "ward": "緑区", "address": "神奈川県横浜市緑区長津田町2330"}}, {"type": "Feature", "geometry": {"type": "Point", "coordinates": [139.514786, 35.520409]}, "properties": {"name": "十日市場小学校", "ward": "緑区", "address": "神奈川県横浜市緑区十日市場町1392-1"}}, {"type": "Feature", "geometry": {"type": "Point", "coordinates": [139.526476, 35.515716]}, "properties": {"name": "三保小学校", "ward": "緑区", "address": "神奈川県横浜市緑区三保町1867"}}, {"type": "Feature", "geometry": {"type": "Point", "coordinates": [139.56103, 35.495932]}, "properties": {"name": "竹山小学校", "ward": "緑区", "address": "神奈川県横浜市緑区竹山三丁目1-16"}}, {"type": "Feature", "geometry": {"type": "Point", "coordinates": [139.488431, 35.534724]}, "properties": {"name": "長津田第二小学校", "ward": "緑区", "address": "神奈川県横浜市緑区長津田町2469-3"}}, {"type": "Feature", "geometry": {"type": "Point", "coordinates": [139.581853, 35.505046]}, "properties": {"name": "東本郷小学校", "ward": "緑区", "address": "神奈川県横浜市緑区東本郷五丁目40-1"}}, {"type": "Feature", "geometry": {"type": "Point", "coordinates": [139.54706, 35.506905]}, "properties": {"name": "上山小学校", "ward": "緑区", "address": "神奈川県横浜市緑区上山二丁目5-1"}}, {"type": "Feature", "geometry": {"type": "Point", "coordinates": [139.560581, 35.505329]}, "properties": {"name": "緑小学校", "ward": "緑区", "address": "神奈川県横浜市緑区鴨居五丁目19-1"}}, {"type": "Feature", "geometry": {"type": "Point", "coordinates": [139.507294, 35.512151]}, "properties": {"name": "霧が丘小学校", "ward": "緑区", "address": "神奈川県横浜市緑区霧が丘四丁目3"}}, {"type": "Feature", "geometry": {"type": "Point", "coordinates": [139.504953, 35.516031]}, "properties": {"name": "霧が丘複合施設「霧の里」", "ward": "緑区", "address": "神奈川県横浜市緑区霧が丘三丁目23"}}, {"type": "Feature", "geometry": {"type": "Point", "coordinates": [139.502056, 35.526076]}, "properties": {"name": "いぶき野小学校", "ward": "緑区", "address": "神奈川県横浜市緑区いぶき野14-1"}}, {"type": "Feature", "geometry": {"type": "Point", "coordinates": [139.548288, 35.510568]}, "properties": {"name": "中山小学校", "ward": "緑区", "address": "神奈川県横浜市緑区中山町925"}}, {"type": "Feature", "geometry": {"type": "Point", "coordinates": [139.533087, 35.53131]}, "properties": {"name": "山下みどり台小学校", "ward": "緑区", "address": "神奈川県横浜市緑区北八朔町2031-3"}}, {"type": "Feature", "geometry": {"type": "Point", "coordinates": [139.498395, 35.534331]}, "properties": {"name": "田奈中学校", "ward": "緑区", "address": "神奈川県横浜市緑区長津田二丁目24-1"}}, {"type": "Feature", "geometry": {"type": "Point", "coordinates": [139.539827, 35.503936]}, "properties": {"name": "中山中学校", "ward": "緑区", "address": "神奈川県横浜市緑区寺山町653-21"}}, {"type": "Feature", "geometry": {"type": "Point", "coordinates": [139.512502, 35.522261]}, "properties": {"name": "十日市場中学校", "ward": "緑区", "address": "神奈川県横浜市緑区十日市場町1501-42"}}, {"type": "Feature", "geometry": {"type": "Point", "coordinates": [139.561255, 35.507394]}, "properties": {"name": "鴨居中学校", "ward": "緑区", "address": "神奈川県横浜市緑区鴨居五丁目12-35"}}, {"type": "Feature", "geometry": {"type": "Point", "coordinates": [139.571396, 35.504659]}, "properties": {"name": "東鴨居中学校", "ward": "緑区", "address": "神奈川県横浜市緑区鴨居三丁目39-1"}}, {"type": "Feature", "geometry": {"type": "Point", "coordinates": [139.587797, 35.550639]}, "properties": {"name": "中川小学校", "ward": "都筑区", "address": "神奈川県横浜市都筑区牛久保東二丁目21-1"}}, {"type": "Feature", "geometry": {"type": "Point", "coordinates": [139.60312, 35.559773]}, "properties": {"name": "山田小学校", "ward": "都筑区", "address": "神奈川県横浜市都筑区東山田三丁目29-1"}}, {"type": "Feature", "geometry": {"type": "Point", "coordinates": [139.595042, 35.543446]}, "properties": {"name": "勝田小学校", "ward": "都筑区", "address": "神奈川県横浜市都筑区勝田町266"}}, {"type": "Feature", "geometry": {"type": "Point", "coordinates": [139.58016, 35.56598]}, "properties": {"name": "すみれが丘小学校", "ward": "都筑区", "address": "神奈川県横浜市都筑区すみれが丘34"}}, {"type": "Feature", "geometry": {"type": "Point", "coordinates": [139.580281, 35.540564]}, "properties": {"name": "茅ケ崎小学校", "ward": "都筑区", "address": "神奈川県横浜市都筑区茅ケ崎南一丁目11-1"}}, {"type": "Feature", "geometry": {"type": "Point", "coordinates": [139.569111, 35.560105]}, "properties": {"name": "中川西小学校", "ward": "都筑区", "address": "神奈川県横浜市都筑区中川一丁目3-1"}}, {"type": "Feature", "geometry": {"type": "Point", "coordinates": [139.571535, 35.522299]}, "properties": {"name": "都田小学校", "ward": "都筑区", "address": "神奈川県横浜市都筑区池辺町2831"}}, {"type": "Feature", "geometry": {"type": "Point", "coordinates": [139.547492, 35.529661]}, "properties": {"name": "川和小学校", "ward": "都筑区", "address": "神奈川県横浜市都筑区川和町1463"}}, {"type": "Feature", "geometry": {"type": "Point", "coordinates": [139.594545, 35.528225]}, "properties": {"name": "折本小学校", "ward": "都筑区", "address": "神奈川県横浜市都筑区折本町1321"}}, {"type": "Feature", "geometry": {"type": "Point", "coordinates": [139.563998, 35.557228]}, "properties": {"name": "荏田小学校", "ward": "都筑区", "address": "神奈川県横浜市都筑区荏田南町694"}}, {"type": "Feature", "geometry": {"type": "Point", "coordinates": [139.563292, 35.521488]}, "properties": {"name": "都田西小学校", "ward": "都筑区", "address": "神奈川県横浜市都筑区池辺町2452-1"}}, {"type": "Feature", "geometry": {"type": "Point", "coordinates": [139.562714, 35.546931]}, "properties": {"name": "荏田東第一小学校", "ward": "都筑区", "address": "神奈川県横浜市都筑区荏田東三丁目5-1"}}, {"type": "Feature", "geometry": {"type": "Point", "coordinates": [139.556734, 35.543911]}, "properties": {"name": "荏田南小学校", "ward": "都筑区", "address": "神奈川県横浜市都筑区荏田南二丁目5-2"}}, {"type": "Feature", "geometry": {"type": "Point", "coordinates": [139.569973, 35.537235]}, "properties": {"name": "茅ケ崎台小学校", "ward": "都筑区", "address": "神奈川県横浜市都筑区長坂13-1"}}, {"type": "Feature", "geometry": {"type": "Point", "coordinates": [139.558117, 35.531758]}, "properties": {"name": "川和東小学校", "ward": "都筑区", "address": "神奈川県横浜市都筑区富士見が丘21-2"}}, {"type": "Feature", "geometry": {"type": "Point", "coordinates": [139.585832, 35.564769]}, "properties": {"name": "北山田小学校", "ward": "都筑区", "address": "神奈川県横浜市都筑区北山田五丁目14-1"}}, {"type": "Feature", "geometry": {"type": "Point", "coordinates": [139.574796, 35.556654]}, "properties": {"name": "都筑小学校", "ward": "都筑区", "address": "神奈川県横浜市都筑区中川六丁目2-1"}}, {"type": "Feature", "geometry": {"type": "Point", "coordinates": [139.589054, 35.55739]}, "properties": {"name": "南山田小学校", "ward": "都筑区", "address": "神奈川県横浜市都筑区南山田二丁目27-1"}}, {"type": "Feature", "geometry": {"type": "Point", "coordinates": [139.565817, 35.545681]}, "properties": {"name": "つづきの丘小学校", "ward": "都筑区", "address": "神奈川県横浜市都筑区荏田東一丁目22-1"}}, {"type": "Feature", "geometry": {"type": "Point", "coordinates": [139.596252, 35.564446]}, "properties": {"name": "東山田小学校", "ward": "都筑区", "address": "神奈川県横浜市都筑区東山田一丁目4-1"}}, {"type": "Feature", "geometry": {"type": "Point", "coordinates": [139.580942, 35.542827]}, "properties": {"name": "茅ケ崎東小学校", "ward": "都筑区", "address": "神奈川県横浜市都筑区茅ケ崎東二丁目11-1"}}, {"type": "Feature", "geometry": {"type": "Point", "coordinates": [139.593448, 35.551063]}, "properties": {"name": "中川中学校", "ward": "都筑区", "address": "神奈川県横浜市都筑区大棚町240"}}, {"type": "Feature", "geometry": {"type": "Point", "coordinates": [139.582128, 35.540716]}, "properties": {"name": "茅ケ崎中学校", "ward": "都筑区", "address": "神奈川県横浜市都筑区茅ケ崎南一丁目10-1"}}, {"type": "Feature", "geometry": {"type": "Point", "coordinates": [139.565459, 35.562038]}, "properties": {"name": "中川西中学校", "ward": "都筑区", "address": "神奈川県横浜市都筑区中川二丁目1-1"}}, {"type": "Feature", "geometry": {"type": "Point", "coordinates": [139.570545, 35.52299]}, "properties": {"name": "都田中学校", "ward": "都筑区", "address": "神奈川県横浜市都筑区池辺町2818"}}, {"type": "Feature", "geometry": {"type": "Point", "coordinates": [139.556894, 35.530812]}, "properties": {"name": "川和中学校", "ward": "都筑区", "address": "神奈川県横浜市都筑区富士見が丘21-1"}}, {"type": "Feature", "geometry": {"type": "Point", "coordinates": [139.58201, 35.559364]}, "properties": {"name": "牛久保小学校", "ward": "都筑区", "address": "神奈川県横浜市都筑区牛久保一丁目23"}}]}